start=new Date('2022-10-27T00:00:00.000Z').valueOf();
sats=[{"SEMIMAJOR_AXIS":"6917.887","ARG_OF_PERICENTER":"36.0365","CLASSIFICATION_TYPE":"U","SITE":"AFWTR","REV_AT_EPOCH":"5094","LAUNCH_DATE":"2021-12-18","TIME_SYSTEM":"UTC","OBJECT_TYPE":"PAYLOAD","RCS_SIZE":"LARGE","RA_OF_ASC_NODE":"11.2224","MEAN_ANOMALY":"324.0776","PERIAPSIS":"538.221","MEAN_MOTION":"15.08837758","TLE_LINE2":"2 50180  53.2187  11.2224 0002213  36.0365 324.0776 15.08837758 50944","MEAN_ELEMENT_THEORY":"SGP4","APOAPSIS":"541.283","DECAY_DATE":null,"COUNTRY_CODE":"US","FILE":"3635100","ELEMENT_SET_NO":"999","TLE_LINE1":"1 50180U 21125AA  22299.59882630  .00003363  00000-0  22932-3 0  9996","ECCENTRICITY":"0.00022130","GP_ID":"216266733","MEAN_MOTION_DDOT":"0.0000000000000","EPHEMERIS_TYPE":"0","MEAN_MOTION_DOT":"0.00003363","NORAD_CAT_ID":"50180","EPOCH":"2022-10-26T14:22:18.592320","OBJECT_NAME":"STARLINK-3265","CENTER_NAME":"EARTH","PERIOD":"95.438","OBJECT_ID":"2021-125AA","INCLINATION":"53.2187","BSTAR":"0.00022932000000","REF_FRAME":"TEME"},{"ELEMENT_SET_NO":"999","FILE":"3635100","COUNTRY_CODE":"US","OBJECT_NAME":"STARLINK-3285","EPOCH":"2022-10-26T14:11:43.848672","NORAD_CAT_ID":"50181","BSTAR":"0.00019950000000","REF_FRAME":"TEME","OBJECT_ID":"2021-125AB","PERIOD":"95.438","INCLINATION":"53.2182","CENTER_NAME":"EARTH","ECCENTRICITY":"0.00025470","TLE_LINE1":"1 50181U 21125AB  22299.59147973  .00002887  00000-0  19950-3 0  9997","MEAN_MOTION_DOT":"0.00002887","MEAN_MOTION_DDOT":"0.0000000000000","GP_ID":"216266976","EPHEMERIS_TYPE":"0","LAUNCH_DATE":"2021-12-18","REV_AT_EPOCH":"5090","RCS_SIZE":"LARGE","RA_OF_ASC_NODE":"11.2590","OBJECT_TYPE":"PAYLOAD","TIME_SYSTEM":"UTC","ARG_OF_PERICENTER":"28.7821","SEMIMAJOR_AXIS":"6917.917","SITE":"AFWTR","CLASSIFICATION_TYPE":"U","MEAN_ELEMENT_THEORY":"SGP4","TLE_LINE2":"2 50181  53.2182  11.2590 0002547  28.7821 331.3312 15.08828023 50909","MEAN_MOTION":"15.08828023","DECAY_DATE":null,"APOAPSIS":"541.544","PERIAPSIS":"538.020","MEAN_ANOMALY":"331.3312"},{"TLE_LINE1":"1 50182U 21125AC  22299.58412755  .00002880  00000-0  19910-3 0  9999","ECCENTRICITY":"0.00027300","MEAN_MOTION_DOT":"0.00002880","GP_ID":"216265231","MEAN_MOTION_DDOT":"0.0000000000000","EPHEMERIS_TYPE":"0","NORAD_CAT_ID":"50182","OBJECT_NAME":"STARLINK-3277","EPOCH":"2022-10-26T14:01:08.620320","CENTER_NAME":"EARTH","REF_FRAME":"TEME","BSTAR":"0.00019910000000","PERIOD":"95.439","OBJECT_ID":"2021-125AC","INCLINATION":"53.2168","FILE":"3635100","COUNTRY_CODE":"US","ELEMENT_SET_NO":"999","MEAN_ANOMALY":"330.5476","PERIAPSIS":"537.910","MEAN_MOTION":"15.08822591","MEAN_ELEMENT_THEORY":"SGP4","TLE_LINE2":"2 50182  53.2168  11.2958 0002730  29.5670 330.5476 15.08822591 50936","APOAPSIS":"541.687","DECAY_DATE":null,"ARG_OF_PERICENTER":"29.5670","SEMIMAJOR_AXIS":"6917.934","CLASSIFICATION_TYPE":"U","SITE":"AFWTR","LAUNCH_DATE":"2021-12-18","REV_AT_EPOCH":"5093","TIME_SYSTEM":"UTC","RCS_SIZE":"LARGE","RA_OF_ASC_NODE":"11.2958","OBJECT_TYPE":"PAYLOAD"},{"MEAN_ANOMALY":"322.0834","PERIAPSIS":"537.950","DECAY_DATE":null,"APOAPSIS":"541.396","MEAN_MOTION":"15.08863699","MEAN_ELEMENT_THEORY":"SGP4","TLE_LINE2":"2 50183  53.2167  11.5800 0002491  38.0334 322.0834 15.08863699 50939","CLASSIFICATION_TYPE":"U","SITE":"AFWTR","ARG_OF_PERICENTER":"38.0334","SEMIMAJOR_AXIS":"6917.808","TIME_SYSTEM":"UTC","RCS_SIZE":"LARGE","OBJECT_TYPE":"PAYLOAD","RA_OF_ASC_NODE":"11.5800","LAUNCH_DATE":"2021-12-18","REV_AT_EPOCH":"5093","MEAN_MOTION_DOT":"0.00017514","GP_ID":"216265481","EPHEMERIS_TYPE":"0","MEAN_MOTION_DDOT":"0.0000000000000","TLE_LINE1":"1 50183U 21125AD  22299.52156027  .00017514  00000-0  11150-2 0  9998","ECCENTRICITY":"0.00024910","CENTER_NAME":"EARTH","REF_FRAME":"TEME","BSTAR":"0.00111500000000","PERIOD":"95.436","OBJECT_ID":"2021-125AD","INCLINATION":"53.2167","NORAD_CAT_ID":"50183","EPOCH":"2022-10-26T12:31:02.807328","OBJECT_NAME":"STARLINK-3281","FILE":"3635100","COUNTRY_CODE":"US","ELEMENT_SET_NO":"999"},{"ARG_OF_PERICENTER":"27.6533","SEMIMAJOR_AXIS":"6917.895","CLASSIFICATION_TYPE":"U","SITE":"AFWTR","LAUNCH_DATE":"2021-12-18","REV_AT_EPOCH":"5090","TIME_SYSTEM":"UTC","OBJECT_TYPE":"PAYLOAD","RCS_SIZE":"LARGE","RA_OF_ASC_NODE":"11.2376","MEAN_ANOMALY":"332.4584","PERIAPSIS":"538.137","MEAN_MOTION":"15.08835296","MEAN_ELEMENT_THEORY":"SGP4","TLE_LINE2":"2 50185  53.2192  11.2376 0002346  27.6533 332.4584 15.08835296 50904","DECAY_DATE":null,"APOAPSIS":"541.383","FILE":"3635100","COUNTRY_CODE":"US","ELEMENT_SET_NO":"999","TLE_LINE1":"1 50185U 21125AF  22299.59515113  .00003184  00000-0  21807-3 0  9991","ECCENTRICITY":"0.00023460","MEAN_MOTION_DOT":"0.00003184","GP_ID":"216266233","EPHEMERIS_TYPE":"0","MEAN_MOTION_DDOT":"0.0000000000000","NORAD_CAT_ID":"50185","OBJECT_NAME":"STARLINK-3279","EPOCH":"2022-10-26T14:17:01.057632","CENTER_NAME":"EARTH","BSTAR":"0.00021807000000","REF_FRAME":"TEME","PERIOD":"95.438","INCLINATION":"53.2192","OBJECT_ID":"2021-125AF"},{"ELEMENT_SET_NO":"999","FILE":"3635100","COUNTRY_CODE":"US","NORAD_CAT_ID":"50186","EPOCH":"2022-10-26T14:36:54.345312","OBJECT_NAME":"STARLINK-3274","CENTER_NAME":"EARTH","REF_FRAME":"TEME","BSTAR":"0.00043153000000","OBJECT_ID":"2021-125AG","PERIOD":"95.438","INCLINATION":"53.2189","TLE_LINE1":"1 50186U 21125AG  22299.60896233  .00006585  00000-0  43153-3 0  9995","ECCENTRICITY":"0.00024060","MEAN_MOTION_DOT":"0.00006585","MEAN_MOTION_DDOT":"0.0000000000000","GP_ID":"216266476","EPHEMERIS_TYPE":"0","LAUNCH_DATE":"2021-12-18","REV_AT_EPOCH":"5075","TIME_SYSTEM":"UTC","RA_OF_ASC_NODE":"21.1692","RCS_SIZE":"LARGE","OBJECT_TYPE":"PAYLOAD","ARG_OF_PERICENTER":"34.8810","SEMIMAJOR_AXIS":"6917.903","CLASSIFICATION_TYPE":"U","SITE":"AFWTR","MEAN_MOTION":"15.08832495","MEAN_ELEMENT_THEORY":"SGP4","TLE_LINE2":"2 50186  53.2189  21.1692 0002406  34.8810 325.2339 15.08832495 50756","DECAY_DATE":null,"APOAPSIS":"541.433","MEAN_ANOMALY":"325.2339","PERIAPSIS":"538.104"},{"ELEMENT_SET_NO":"999","COUNTRY_CODE":"US","FILE":"3634846","EPOCH":"2022-10-26T10:30:29.159136","OBJECT_NAME":"STARLINK-3272","NORAD_CAT_ID":"50187","PERIOD":"95.437","INCLINATION":"53.2173","OBJECT_ID":"2021-125AH","REF_FRAME":"TEME","BSTAR":"0.00070806000000","CENTER_NAME":"EARTH","ECCENTRICITY":"0.00016750","TLE_LINE1":"1 50187U 21125AH  22299.43783749  .00011000  00000-0  70806-3 0  9997","EPHEMERIS_TYPE":"0","GP_ID":"216208697","MEAN_MOTION_DDOT":"0.0000000000000","MEAN_MOTION_DOT":"0.00011000","REV_AT_EPOCH":"5099","LAUNCH_DATE":"2021-12-18","OBJECT_TYPE":"PAYLOAD","RCS_SIZE":"LARGE","RA_OF_ASC_NODE":"1.9322","TIME_SYSTEM":"UTC","SEMIMAJOR_AXIS":"6917.868","ARG_OF_PERICENTER":"42.2304","SITE":"AFWTR","CLASSIFICATION_TYPE":"U","TLE_LINE2":"2 50187  53.2173   1.9322 0001675  42.2304 317.8817 15.08844211 50997","MEAN_ELEMENT_THEORY":"SGP4","MEAN_MOTION":"15.08844211","APOAPSIS":"540.891","DECAY_DATE":null,"PERIAPSIS":"538.574","MEAN_ANOMALY":"317.8817"},{"APOAPSIS":"541.568","DECAY_DATE":null,"MEAN_ELEMENT_THEORY":"SGP4","TLE_LINE2":"2 50188  53.2184   1.9090 0002656  29.7656 330.3487 15.08844784 47918","MEAN_MOTION":"15.08844784","PERIAPSIS":"537.893","MEAN_ANOMALY":"330.3487","RA_OF_ASC_NODE":"1.9090","RCS_SIZE":"LARGE","OBJECT_TYPE":"PAYLOAD","TIME_SYSTEM":"UTC","LAUNCH_DATE":"2021-12-18","REV_AT_EPOCH":"4791","SITE":"AFWTR","CLASSIFICATION_TYPE":"U","ARG_OF_PERICENTER":"29.7656","SEMIMAJOR_AXIS":"6917.866","REF_FRAME":"TEME","BSTAR":"0.00023032000000","PERIOD":"95.437","INCLINATION":"53.2184","OBJECT_ID":"2021-125AJ","CENTER_NAME":"EARTH","EPOCH":"2022-10-26T10:35:46.294656","OBJECT_NAME":"STARLINK-3275","NORAD_CAT_ID":"50188","MEAN_MOTION_DOT":"0.00003380","EPHEMERIS_TYPE":"0","GP_ID":"216240432","MEAN_MOTION_DDOT":"0.0000000000000","ECCENTRICITY":"0.00026560","TLE_LINE1":"1 50188U 21125AJ  22299.44150804  .00003380  00000-0  23032-3 0  9990","ELEMENT_SET_NO":"999","FILE":"3634984","COUNTRY_CODE":"US"},{"TLE_LINE1":"1 50189U 21125AK  22299.57675863  .00001842  00000-0  13386-3 0  9994","ECCENTRICITY":"0.00027560","MEAN_MOTION_DDOT":"0.0000000000000","GP_ID":"216266734","EPHEMERIS_TYPE":"0","MEAN_MOTION_DOT":"0.00001842","NORAD_CAT_ID":"50189","OBJECT_NAME":"STARLINK-3276","EPOCH":"2022-10-26T13:50:31.945632","CENTER_NAME":"EARTH","OBJECT_ID":"2021-125AK","PERIOD":"95.438","INCLINATION":"53.2192","BSTAR":"0.00013386000000","REF_FRAME":"TEME","COUNTRY_CODE":"US","FILE":"3635100","ELEMENT_SET_NO":"999","MEAN_ANOMALY":"319.0634","PERIAPSIS":"537.848","MEAN_MOTION":"15.08836869","TLE_LINE2":"2 50189  53.2192  11.3201 0002756  41.0565 319.0634 15.08836869 50933","MEAN_ELEMENT_THEORY":"SGP4","APOAPSIS":"541.662","DECAY_DATE":null,"SEMIMAJOR_AXIS":"6917.890","ARG_OF_PERICENTER":"41.0565","CLASSIFICATION_TYPE":"U","SITE":"AFWTR","REV_AT_EPOCH":"5093","LAUNCH_DATE":"2021-12-18","TIME_SYSTEM":"UTC","RCS_SIZE":"LARGE","RA_OF_ASC_NODE":"11.3201","OBJECT_TYPE":"PAYLOAD"},{"LAUNCH_DATE":"2021-12-18","REV_AT_EPOCH":"5102","RCS_SIZE":"LARGE","RA_OF_ASC_NODE":"1.4007","OBJECT_TYPE":"PAYLOAD","TIME_SYSTEM":"UTC","ARG_OF_PERICENTER":"30.7628","SEMIMAJOR_AXIS":"6917.866","SITE":"AFWTR","CLASSIFICATION_TYPE":"U","MEAN_ELEMENT_THEORY":"SGP4","TLE_LINE2":"2 50190  53.2170   1.4007 0002470  30.7628 329.3508 15.08844852 51029","MEAN_MOTION":"15.08844852","APOAPSIS":"541.439","DECAY_DATE":null,"PERIAPSIS":"538.022","MEAN_ANOMALY":"329.3508","ELEMENT_SET_NO":"999","FILE":"3635100","COUNTRY_CODE":"US","EPOCH":"2022-10-26T13:25:21.593280","OBJECT_NAME":"STARLINK-3268","NORAD_CAT_ID":"50190","REF_FRAME":"TEME","BSTAR":"0.00062871000000","PERIOD":"95.437","INCLINATION":"53.2170","OBJECT_ID":"2021-125AL","CENTER_NAME":"EARTH","ECCENTRICITY":"0.00024700","TLE_LINE1":"1 50190U 21125AL  22299.55927770  .00009733  00000-0  62871-3 0  9991","MEAN_MOTION_DOT":"0.00009733","GP_ID":"216266977","MEAN_MOTION_DDOT":"0.0000000000000","EPHEMERIS_TYPE":"0"}];
